[{"OBJECT_NAME":"UTMN 2 (RS27S)","OBJECT_ID":"2023-091AP","EPOCH":"2026-03-09T23:09:07.917408","MEAN_MOTION":15.29495965,"ECCENTRICITY":0.00097379,"INCLINATION":97.5194,"RA_OF_ASC_NODE":134.949,"ARG_OF_PERICENTER":76.0788,"MEAN_ANOMALY":284.1534,"EPHEMERIS_TYPE":0,"CLASSIFICATION_TYPE":"U","NORAD_CAT_ID":57203,"ELEMENT_SET_NO":999,"REV_AT_EPOCH":14936,"BSTAR":0.00056135701,"MEAN_MOTION_DOT":0.00016013,"MEAN_MOTION_DDOT":0},{"OBJECT_NAME":"STARLINK-30951","OBJECT_ID":"2023-183C","EPOCH":"2026-03-09T07:01:35.397984","MEAN_MOTION":15.26744627,"ECCENTRICITY":0.00016018,"INCLINATION":43.0011,"RA_OF_ASC_NODE":43.8572,"ARG_OF_PERICENTER":267.1892,"MEAN_ANOMALY":92.8776,"EPHEMERIS_TYPE":0,"CLASSIFICATION_TYPE":"U","NORAD_CAT_ID":58439,"ELEMENT_SET_NO":999,"REV_AT_EPOCH":12667,"BSTAR":-4.7391944e-5,"MEAN_MOTION_DOT":-1.531e-5,"MEAN_MOTION_DDOT":0}]
